[{"OBJECT_NAME":"STARLINK-3565","OBJECT_ID":"2022-022AL","EPOCH":"2026-03-09T02:34:47.129952","MEAN_MOTION":15.08833739,"ECCENTRICITY":0.00014367,"INCLINATION":53.2191,"RA_OF_ASC_NODE":1.7334,"ARG_OF_PERICENTER":89.0642,"MEAN_ANOMALY":271.0515,"EPHEMERIS_TYPE":0,"CLASSIFICATION_TYPE":"U","NORAD_CAT_ID":51886,"ELEMENT_SET_NO":999,"REV_AT_EPOCH":22316,"BSTAR":-0.00010750613,"MEAN_MOTION_DOT":-1.998e-5,"MEAN_MOTION_DDOT":0},{"OBJECT_NAME":"OBJECT A","OBJECT_ID":"2024-205A","EPOCH":"2026-03-09T23:47:25.060128","MEAN_MOTION":15.10420635,"ECCENTRICITY":0.00183963,"INCLINATION":97.4208,"RA_OF_ASC_NODE":142.0688,"ARG_OF_PERICENTER":137.3438,"MEAN_ANOMALY":222.9224,"EPHEMERIS_TYPE":0,"CLASSIFICATION_TYPE":"U","NORAD_CAT_ID":61894,"ELEMENT_SET_NO":999,"REV_AT_EPOCH":7322,"BSTAR":0.00061451018,"MEAN_MOTION_DOT":0.00010084,"MEAN_MOTION_DDOT":0}]
